{"type": "FeatureCollection", "features": [ {"type": "Feature", "properties": {"norad_id": 34303, "name": "COSMOS 2251 DEB", "group": "cosmos-2251-debris", "lat": -28.21688151302672, "lon": -74.49570813975326, "alt_km": 737.0201428503551, "timestamp": "2025-12-09T09:46:48.039575+00:00", "meta": {"OBJECT_NAME": "COSMOS 2251 DEB", "OBJECT_ID": "1993-036MZ", "EPOCH": "2025-12-08T20:51:22.020768", "MEAN_MOTION": 14.54371333, "ECCENTRICITY": 0.01349529, "INCLINATION": 74.0058, "RA_OF_ASC_NODE": 295.3776, "ARG_OF_PERICENTER": 74.7195, "MEAN_ANOMALY": 319.1519, "EPHEMERIS_TYPE": 0, "CLASSIFICATION_TYPE": "U", "NORAD_CAT_ID": 34303, "ELEMENT_SET_NO": 999, "REV_AT_EPOCH": 87906, "BSTAR": 0.0022254409, "MEAN_MOTION_DOT": 0.00010666, "MEAN_MOTION_DDOT": 0}, "tle": {"line1": "1 34303U 93036MZ  25342.86900487  .00010666  00000+0  22254-2 0  9997", "line2": "2 34303  74.0058 295.3776 0134952  74.7195 319.1519 14.54371333879068"}}, "geometry": {"type": "Point", "coordinates": [-74.49570813975326, -28.21688151302672]}}, {"type": "Feature", "properties": {"norad_id": 34304, "name": "COSMOS 2251 DEB", "group": "cosmos-2251-debris", "lat": -69.68324844400864, "lon": 78.00161148635615, "alt_km": 683.8349764009463, "timestamp": "2025-12-09T09:46:48.039585+00:00", "meta": {"OBJECT_NAME": "COSMOS 2251 DEB", "OBJECT_ID": "1993-036NA", "EPOCH": "2025-12-08T21:22:32.585952", "MEAN_MOTION": 14.3780042, "ECCENTRICITY": 0.01289415, "INCLINATION": 74.0136, "RA_OF_ASC_NODE": 129.6947, "ARG_OF_PERICENTER": 268.2653, "MEAN_ANOMALY": 219.8994, "EPHEMERIS_TYPE": 0, "CLASSIFICATION_TYPE": "U", "NORAD_CAT_ID": 34304, "ELEMENT_SET_NO": 999, "REV_AT_EPOCH": 87241, "BSTAR": 0.0018822244, "MEAN_MOTION_DOT": 6.219e-05, "MEAN_MOTION_DDOT": 0}, "tle": {"line1": "1 34304U 93036NA  25342.89065493  .00006219  00000+0  18822-2 0  9995", "line2": "2 34304  74.0136 129.6947 0128941 268.2653 219.8994 14.37800420872415"}}, "geometry": {"type": "Point", "coordinates": [78.00161148635615, -69.68324844400864]}}, {"type": "Feature", "properties": {"norad_id": 34307, "name": "COSMOS 2251 DEB", "group": "cosmos-2251-debris", "lat": 41.874383688746796, "lon": -26.685929369345775, "alt_km": 1122.8251498038308, "timestamp": "2025-12-09T09:46:48.039596+00:00", "meta": {"OBJECT_NAME": "COSMOS 2251 DEB", "OBJECT_ID": "1993-036ND", "EPOCH": "2025-12-08T09:28:06.570336", "MEAN_MOTION": 13.54312496, "ECCENTRICITY": 0.03922034, "INCLINATION": 74.0531, "RA_OF_ASC_NODE": 320.088, "ARG_OF_PERICENTER": 151.9843, "MEAN_ANOMALY": 359.4417, "EPHEMERIS_TYPE": 0, "CLASSIFICATION_TYPE": "U", "NORAD_CAT_ID": 34307, "ELEMENT_SET_NO": 999, "REV_AT_EPOCH": 82803, "BSTAR": 0.00097370567, "MEAN_MOTION_DOT": 1.064e-05, "MEAN_MOTION_DDOT": 0}, "tle": {"line1": "1 34307U 93036ND  25342.39452049  .00001064  00000+0  97371-3 0  9990", "line2": "2 34307  74.0531 320.0880 0392203 151.9843 359.4417 13.54312496828032"}}, "geometry": {"type": "Point", "coordinates": [-26.685929369345775, 41.874383688746796]}}, {"type": "Feature", "properties": {"norad_id": 34313, "name": "COSMOS 2251 DEB", "group": "cosmos-2251-debris", "lat": 24.87959006232733, "lon": -39.8479579878672, "alt_km": 506.0868746042379, "timestamp": "2025-12-09T09:46:48.039606+00:00", "meta": {"OBJECT_NAME": "COSMOS 2251 DEB", "OBJECT_ID": "1993-036NK", "EPOCH": "2025-12-08T21:00:49.310208", "MEAN_MOTION": 15.18097622, "ECCENTRICITY": 0.00114167, "INCLINATION": 73.9727, "RA_OF_ASC_NODE": 313.6067, "ARG_OF_PERICENTER": 85.253, "MEAN_ANOMALY": 274.9969, "EPHEMERIS_TYPE": 0, "CLASSIFICATION_TYPE": "U", "NORAD_CAT_ID": 34313, "ELEMENT_SET_NO": 999, "REV_AT_EPOCH": 89006, "BSTAR": 0.0048274276, "MEAN_MOTION_DOT": 0.00099955, "MEAN_MOTION_DDOT": 0}, "tle": {"line1": "1 34313U 93036NK  25342.87557072  .00099955  00000+0  48274-2 0  9995", "line2": "2 34313  73.9727 313.6067 0011416  85.2530 274.9969 15.18097622890063"}}, "geometry": {"type": "Point", "coordinates": [-39.8479579878672, 24.87959006232733]}}, {"type": "Feature", "properties": {"norad_id": 34314, "name": "COSMOS 2251 DEB", "group": "cosmos-2251-debris", "lat": -2.0643029999022504, "lon": 134.92254583412785, "alt_km": 874.782363545607, "timestamp": "2025-12-09T09:46:48.039617+00:00", "meta": {"OBJECT_NAME": "COSMOS 2251 DEB", "OBJECT_ID": "1993-036NL", "EPOCH": "2025-12-08T23:02:59.559648", "MEAN_MOTION": 14.1740962, "ECCENTRICITY": 0.01027175, "INCLINATION": 74.0069, "RA_OF_ASC_NODE": 315.1277, "ARG_OF_PERICENTER": 61.7458, "MEAN_ANOMALY": 358.8259, "EPHEMERIS_TYPE": 0, "CLASSIFICATION_TYPE": "U", "NORAD_CAT_ID": 34314, "ELEMENT_SET_NO": 999, "REV_AT_EPOCH": 86604, "BSTAR": 0.00083546507, "MEAN_MOTION_DOT": 1.758e-05, "MEAN_MOTION_DDOT": 0}, "tle": {"line1": "1 34314U 93036NL  25342.96041157  .00001758  00000+0  83547-3 0  9995", "line2": "2 34314  74.0069 315.1277 0102717  61.7458 358.8259 14.17409620866046"}}, "geometry": {"type": "Point", "coordinates": [134.92254583412785, -2.0643029999022504]}}, {"type": "Feature", "properties": {"norad_id": 34316, "name": "COSMOS 2251 DEB", "group": "cosmos-2251-debris", "lat": -20.981719296501836, "lon": 169.854327692218, "alt_km": 601.4788609620618, "timestamp": "2025-12-09T09:46:48.039627+00:00", "meta": {"OBJECT_NAME": "COSMOS 2251 DEB", "OBJECT_ID": "1993-036NN", "EPOCH": "2025-12-08T10:20:39.026400", "MEAN_MOTION": 14.91626759, "ECCENTRICITY": 0.00080718, "INCLINATION": 74.0659, "RA_OF_ASC_NODE": 345.5186, "ARG_OF_PERICENTER": 71.6638, "MEAN_ANOMALY": 288.5422, "EPHEMERIS_TYPE": 0, "CLASSIFICATION_TYPE": "U", "NORAD_CAT_ID": 34316, "ELEMENT_SET_NO": 999, "REV_AT_EPOCH": 89145, "BSTAR": 0.0020361205, "MEAN_MOTION_DOT": 0.00020489, "MEAN_MOTION_DDOT": 0}, "tle": {"line1": "1 34316U 93036NN  25342.43100725  .00020489  00000+0  20361-2 0  9992", "line2": "2 34316  74.0659 345.5186 0008071  71.6638 288.5422 14.91626759891457"}}, "geometry": {"type": "Point", "coordinates": [169.854327692218, -20.981719296501836]}}, {"type": "Feature", "properties": {"norad_id": 34317, "name": "COSMOS 2251 DEB", "group": "cosmos-2251-debris", "lat": 23.488893936301917, "lon": 48.44258755364238, "alt_km": 768.9255533209935, "timestamp": "2025-12-09T09:46:48.039638+00:00", "meta": {"OBJECT_NAME": "COSMOS 2251 DEB", "OBJECT_ID": "1993-036NP", "EPOCH": "2025-12-08T14:54:33.681024", "MEAN_MOTION": 13.65116838, "ECCENTRICITY": 0.033639, "INCLINATION": 73.9248, "RA_OF_ASC_NODE": 42.5379, "ARG_OF_PERICENTER": 32.5997, "MEAN_ANOMALY": 89.78, "EPHEMERIS_TYPE": 0, "CLASSIFICATION_TYPE": "U", "NORAD_CAT_ID": 34317, "ELEMENT_SET_NO": 999, "REV_AT_EPOCH": 83563, "BSTAR": 0.0006279, "MEAN_MOTION_DOT": 7.27e-06, "MEAN_MOTION_DDOT": 0}, "tle": {"line1": "1 34317U 93036NP  25342.62122316  .00000727  00000+0  62790-3 0  9990", "line2": "2 34317  73.9248  42.5379 0336390  32.5997  89.7800 13.65116838835631"}}, "geometry": {"type": "Point", "coordinates": [48.44258755364238, 23.488893936301917]}}, {"type": "Feature", "properties": {"norad_id": 34321, "name": "COSMOS 2251 DEB", "group": "cosmos-2251-debris", "lat": 46.82759626607091, "lon": -35.1527994006513, "alt_km": 731.687491285903, "timestamp": "2025-12-09T09:46:48.039661+00:00", "meta": {"OBJECT_NAME": "COSMOS 2251 DEB", "OBJECT_ID": "1993-036NT", "EPOCH": "2025-12-08T23:48:09.004032", "MEAN_MOTION": 14.50028906, "ECCENTRICITY": 0.00157413, "INCLINATION": 74.028, "RA_OF_ASC_NODE": 163.4032, "ARG_OF_PERICENTER": 293.1492, "MEAN_ANOMALY": 188.2253, "EPHEMERIS_TYPE": 0, "CLASSIFICATION_TYPE": "U", "NORAD_CAT_ID": 34321, "ELEMENT_SET_NO": 999, "REV_AT_EPOCH": 88432, "BSTAR": 0.00071770152, "MEAN_MOTION_DOT": 2.759e-05, "MEAN_MOTION_DDOT": 0}, "tle": {"line1": "1 34321U 93036NT  25342.99177088  .00002759  00000+0  71770-3 0  9996", "line2": "2 34321  74.0280 163.4032 0015741 293.1492 188.2253 14.50028906884322"}}, "geometry": {"type": "Point", "coordinates": [-35.1527994006513, 46.82759626607091]}}, {"type": "Feature", "properties": {"norad_id": 34323, "name": "COSMOS 2251 DEB", "group": "cosmos-2251-debris", "lat": -33.81376308869393, "lon": -39.23196368887967, "alt_km": 621.4593388979974, "timestamp": "2025-12-09T09:46:48.039672+00:00", "meta": {"OBJECT_NAME": "COSMOS 2251 DEB", "OBJECT_ID": "1993-036NV", "EPOCH": "2025-12-08T20:30:14.520672", "MEAN_MOTION": 14.74215276, "ECCENTRICITY": 0.00598505, "INCLINATION": 73.9532, "RA_OF_ASC_NODE": 130.7377, "ARG_OF_PERICENTER": 175.6876, "MEAN_ANOMALY": 344.586, "EPHEMERIS_TYPE": 0, "CLASSIFICATION_TYPE": "U", "NORAD_CAT_ID": 34323, "ELEMENT_SET_NO": 999, "REV_AT_EPOCH": 88382, "BSTAR": 0.004379357, "MEAN_MOTION_DOT": 0.00029872, "MEAN_MOTION_DDOT": 0}, "tle": {"line1": "1 34323U 93036NV  25342.85433473  .00029872  00000+0  43794-2 0  9995", "line2": "2 34323  73.9532 130.7377 0059850 175.6876 344.5860 14.74215276883829"}}, "geometry": {"type": "Point", "coordinates": [-39.23196368887967, -33.81376308869393]}}, {"type": "Feature", "properties": {"norad_id": 34325, "name": "COSMOS 2251 DEB", "group": "cosmos-2251-debris", "lat": -5.9642039774264894, "lon": 20.411310860100194, "alt_km": 760.7315095808481, "timestamp": "2025-12-09T09:46:48.039683+00:00", "meta": {"OBJECT_NAME": "COSMOS 2251 DEB", "OBJECT_ID": "1993-036NX", "EPOCH": "2025-12-08T16:04:32.181888", "MEAN_MOTION": 14.04436417, "ECCENTRICITY": 0.0192658, "INCLINATION": 73.8715, "RA_OF_ASC_NODE": 199.9782, "ARG_OF_PERICENTER": 218.139, "MEAN_ANOMALY": 200.7891, "EPHEMERIS_TYPE": 0, "CLASSIFICATION_TYPE": "U", "NORAD_CAT_ID": 34325, "ELEMENT_SET_NO": 999, "REV_AT_EPOCH": 85458, "BSTAR": 0.0026265029, "MEAN_MOTION_DOT": 4.916e-05, "MEAN_MOTION_DDOT": 0}, "tle": {"line1": "1 34325U 93036NX  25342.66981692  .00004916  00000+0  26265-2 0  9993", "line2": "2 34325  73.8715 199.9782 0192658 218.1390 200.7891 14.04436417854581"}}, "geometry": {"type": "Point", "coordinates": [20.411310860100194, -5.9642039774264894]}}]}